start=new Date('2022-02-14T00:00:00.000Z').valueOf();
sats=[{"LAUNCH_DATE":"2021-02-04","CENTER_NAME":"EARTH","TLE_LINE1":"1 47602U 21009BG  22044.54370035  .00007103  00000-0  49509-3 0  9991","MEAN_ELEMENT_THEORY":"SGP4","RCS_SIZE":"LARGE","FILE":"3299685","NORAD_CAT_ID":"47602","COUNTRY_CODE":"US","MEAN_MOTION":"15.06413723","PERIOD":"95.591","OBJECT_ID":"2021-009BG","SITE":"AFETR","DECAY_DATE":null,"INCLINATION":"53.0533","SEMIMAJOR_AXIS":"6925.306","ELEMENT_SET_NO":"999","RA_OF_ASC_NODE":"198.6925","CLASSIFICATION_TYPE":"U","TIME_SYSTEM":"UTC","EPOCH":"2022-02-13T13:02:55.710240","BSTAR":"0.00049509000000","ECCENTRICITY":"0.00011660","GP_ID":"195893027","TLE_LINE2":"2 47602  53.0533 198.6925 0001166  70.7574 289.3541 15.06413723 57088","EPHEMERIS_TYPE":"0","ARG_OF_PERICENTER":"70.7574","REF_FRAME":"TEME","REV_AT_EPOCH":"5708","PERIAPSIS":"546.364","OBJECT_NAME":"STARLINK-2007","APOAPSIS":"547.979","OBJECT_TYPE":"PAYLOAD","MEAN_MOTION_DDOT":"0.0000000000000","MEAN_ANOMALY":"289.3541","MEAN_MOTION_DOT":"0.00007103"},{"PERIOD":"95.592","SITE":"AFETR","OBJECT_ID":"2021-009BH","FILE":"3299685","NORAD_CAT_ID":"47603","COUNTRY_CODE":"US","MEAN_MOTION":"15.06396277","RCS_SIZE":"LARGE","LAUNCH_DATE":"2021-02-04","CENTER_NAME":"EARTH","TLE_LINE1":"1 47603U 21009BH  22044.55569281 -.00001225  00000-0 -63338-4 0  9994","MEAN_ELEMENT_THEORY":"SGP4","BSTAR":"-0.00006333800000","EPOCH":"2022-02-13T13:20:11.858784","GP_ID":"195893277","ECCENTRICITY":"0.00017510","TIME_SYSTEM":"UTC","CLASSIFICATION_TYPE":"U","INCLINATION":"53.0541","ELEMENT_SET_NO":"999","SEMIMAJOR_AXIS":"6925.360","RA_OF_ASC_NODE":"228.6371","DECAY_DATE":null,"PERIAPSIS":"546.012","REV_AT_EPOCH":"5666","REF_FRAME":"TEME","TLE_LINE2":"2 47603  53.0541 228.6371 0001751  64.8839 295.2331 15.06396277 56665","ARG_OF_PERICENTER":"64.8839","EPHEMERIS_TYPE":"0","MEAN_MOTION_DDOT":"0.0000000000000","MEAN_MOTION_DOT":"-0.00001225","MEAN_ANOMALY":"295.2331","OBJECT_TYPE":"PAYLOAD","APOAPSIS":"548.438","OBJECT_NAME":"STARLINK-2008"},{"REV_AT_EPOCH":"5773","PERIAPSIS":"546.251","REF_FRAME":"TEME","ARG_OF_PERICENTER":"69.6570","EPHEMERIS_TYPE":"0","TLE_LINE2":"2 47604  53.0520 197.4709 0001382  69.6570 290.4568 15.06401829 57734","MEAN_MOTION_DOT":"0.00007431","MEAN_MOTION_DDOT":"0.0000000000000","MEAN_ANOMALY":"290.4568","OBJECT_TYPE":"PAYLOAD","APOAPSIS":"548.165","OBJECT_NAME":"STARLINK-2021","SITE":"AFETR","OBJECT_ID":"2021-009BJ","PERIOD":"95.592","COUNTRY_CODE":"US","MEAN_MOTION":"15.06401829","NORAD_CAT_ID":"47604","FILE":"3299903","RCS_SIZE":"LARGE","TLE_LINE1":"1 47604U 21009BJ  22044.81646701  .00007431  00000-0  51723-3 0  9994","MEAN_ELEMENT_THEORY":"SGP4","CENTER_NAME":"EARTH","LAUNCH_DATE":"2021-02-04","ECCENTRICITY":"0.00013820","GP_ID":"195902705","BSTAR":"0.00051723000000","EPOCH":"2022-02-13T19:35:42.749664","TIME_SYSTEM":"UTC","CLASSIFICATION_TYPE":"U","RA_OF_ASC_NODE":"197.4709","SEMIMAJOR_AXIS":"6925.343","ELEMENT_SET_NO":"999","INCLINATION":"53.0520","DECAY_DATE":null},{"INCLINATION":"53.0488","RA_OF_ASC_NODE":"171.4537","SEMIMAJOR_AXIS":"6758.303","ELEMENT_SET_NO":"999","DECAY_DATE":null,"BSTAR":"0.00056428000000","EPOCH":"2022-02-13T17:45:26.400960","ECCENTRICITY":"0.00005680","GP_ID":"195901213","TIME_SYSTEM":"UTC","CLASSIFICATION_TYPE":"U","RCS_SIZE":"LARGE","LAUNCH_DATE":"2021-02-04","CENTER_NAME":"EARTH","TLE_LINE1":"1 47605U 21009BK  22044.73988890  .00051137  00000-0  56428-3 0  9993","MEAN_ELEMENT_THEORY":"SGP4","PERIOD":"92.154","SITE":"AFETR","OBJECT_ID":"2021-009BK","FILE":"3299838","COUNTRY_CODE":"US","MEAN_MOTION":"15.62594562","NORAD_CAT_ID":"47605","APOAPSIS":"380.552","OBJECT_NAME":"STARLINK-2023","MEAN_ANOMALY":"219.0301","MEAN_MOTION_DDOT":"0.0000000000000","MEAN_MOTION_DOT":"0.00051137","OBJECT_TYPE":"PAYLOAD","REF_FRAME":"TEME","TLE_LINE2":"2 47605  53.0488 171.4537 0000568 141.0754 219.0301 15.62594562 58083","ARG_OF_PERICENTER":"141.0754","EPHEMERIS_TYPE":"0","PERIAPSIS":"379.784","REV_AT_EPOCH":"5808"},{"REF_FRAME":"TEME","EPHEMERIS_TYPE":"0","ARG_OF_PERICENTER":"79.7042","TLE_LINE2":"2 47606  53.0572 199.2428 0001387  79.7042 280.4103 15.06387574 57073","PERIAPSIS":"546.291","REV_AT_EPOCH":"5707","APOAPSIS":"548.212","OBJECT_NAME":"STARLINK-2024","MEAN_MOTION_DDOT":"0.0000000000000","MEAN_ANOMALY":"280.4103","MEAN_MOTION_DOT":"-0.00001696","OBJECT_TYPE":"PAYLOAD","RCS_SIZE":"LARGE","TLE_LINE1":"1 47606U 21009BL  22044.42207535 -.00001696  00000-0 -95012-4 0  9990","MEAN_ELEMENT_THEORY":"SGP4","CENTER_NAME":"EARTH","LAUNCH_DATE":"2021-02-04","OBJECT_ID":"2021-009BL","SITE":"AFETR","PERIOD":"95.593","MEAN_MOTION":"15.06387574","COUNTRY_CODE":"US","NORAD_CAT_ID":"47606","FILE":"3299685","RA_OF_ASC_NODE":"199.2428","SEMIMAJOR_AXIS":"6925.387","ELEMENT_SET_NO":"999","INCLINATION":"53.0572","DECAY_DATE":null,"GP_ID":"195893527","ECCENTRICITY":"0.00013870","EPOCH":"2022-02-13T10:07:47.310240","BSTAR":"-0.00009501200000","CLASSIFICATION_TYPE":"U","TIME_SYSTEM":"UTC"},{"REF_FRAME":"TEME","TLE_LINE2":"2 47607  53.0550 198.4433 0001543  66.3793 293.7358 15.06411238 57092","ARG_OF_PERICENTER":"66.3793","EPHEMERIS_TYPE":"0","PERIAPSIS":"546.111","REV_AT_EPOCH":"5709","APOAPSIS":"548.248","OBJECT_NAME":"STARLINK-2025","MEAN_MOTION_DDOT":"0.0000000000000","MEAN_ANOMALY":"293.7358","MEAN_MOTION_DOT":"-0.00001175","OBJECT_TYPE":"PAYLOAD","RCS_SIZE":"LARGE","LAUNCH_DATE":"2021-02-04","CENTER_NAME":"EARTH","MEAN_ELEMENT_THEORY":"SGP4","TLE_LINE1":"1 47607U 21009BM  22044.59899030 -.00001175  00000-0 -59946-4 0  9994","PERIOD":"95.591","SITE":"AFETR","OBJECT_ID":"2021-009BM","FILE":"3299685","COUNTRY_CODE":"US","MEAN_MOTION":"15.06411238","NORAD_CAT_ID":"47607","INCLINATION":"53.0550","SEMIMAJOR_AXIS":"6925.314","RA_OF_ASC_NODE":"198.4433","ELEMENT_SET_NO":"999","DECAY_DATE":null,"BSTAR":"-0.00005994600000","EPOCH":"2022-02-13T14:22:32.761920","ECCENTRICITY":"0.00015430","GP_ID":"195893777","TIME_SYSTEM":"UTC","CLASSIFICATION_TYPE":"U"},{"MEAN_MOTION_DOT":"-0.00003086","MEAN_MOTION_DDOT":"0.0000000000000","MEAN_ANOMALY":"274.3611","OBJECT_TYPE":"PAYLOAD","APOAPSIS":"548.191","OBJECT_NAME":"STARLINK-1528","PERIAPSIS":"546.313","REV_AT_EPOCH":"5566","REF_FRAME":"TEME","EPHEMERIS_TYPE":"0","ARG_OF_PERICENTER":"85.7533","TLE_LINE2":"2 47620  53.0549 257.4797 0001356  85.7533 274.3611 15.06387586 55669","ECCENTRICITY":"0.00013560","GP_ID":"195898238","EPOCH":"2022-02-13T19:33:04.832928","BSTAR":"-0.00018840000000","CLASSIFICATION_TYPE":"U","TIME_SYSTEM":"UTC","ELEMENT_SET_NO":"999","SEMIMAJOR_AXIS":"6925.387","RA_OF_ASC_NODE":"257.4797","INCLINATION":"53.0549","DECAY_DATE":null,"OBJECT_ID":"2021-012A","SITE":"AFETR","PERIOD":"95.593","COUNTRY_CODE":"US","MEAN_MOTION":"15.06387586","NORAD_CAT_ID":"47620","FILE":"3299723","RCS_SIZE":"LARGE","MEAN_ELEMENT_THEORY":"SGP4","TLE_LINE1":"1 47620U 21012A   22044.81463927 -.00003086  00000-0 -18840-3 0  9990","CENTER_NAME":"EARTH","LAUNCH_DATE":"2021-02-16"},{"MEAN_MOTION_DOT":"-0.00005244","MEAN_MOTION_DDOT":"0.0000000000000","MEAN_ANOMALY":"292.0459","OBJECT_TYPE":"PAYLOAD","APOAPSIS":"548.405","OBJECT_NAME":"STARLINK-1609","REV_AT_EPOCH":"5566","PERIAPSIS":"546.187","REF_FRAME":"TEME","ARG_OF_PERICENTER":"68.0700","EPHEMERIS_TYPE":"0","TLE_LINE2":"2 47621  53.0550 257.5206 0001602  68.0700 292.0459 15.06373101 55667","GP_ID":"195898752","ECCENTRICITY":"0.00016020","BSTAR":"-0.00033364000000","EPOCH":"2022-02-13T19:22:28.818336","TIME_SYSTEM":"UTC","CLASSIFICATION_TYPE":"U","SEMIMAJOR_AXIS":"6925.431","ELEMENT_SET_NO":"999","RA_OF_ASC_NODE":"257.5206","INCLINATION":"53.0550","DECAY_DATE":null,"SITE":"AFETR","OBJECT_ID":"2021-012B","PERIOD":"95.594","COUNTRY_CODE":"US","MEAN_MOTION":"15.06373101","NORAD_CAT_ID":"47621","FILE":"3299752","RCS_SIZE":"LARGE","TLE_LINE1":"1 47621U 21012B   22044.80727799 -.00005244  00000-0 -33364-3 0  9996","MEAN_ELEMENT_THEORY":"SGP4","LAUNCH_DATE":"2021-02-16","CENTER_NAME":"EARTH"},{"REV_AT_EPOCH":"5613","PERIAPSIS":"545.963","TLE_LINE2":"2 47622  53.0537 258.7163 0001798  58.0608 302.0555 15.06401619 56138","EPHEMERIS_TYPE":"0","ARG_OF_PERICENTER":"58.0608","REF_FRAME":"TEME","OBJECT_TYPE":"PAYLOAD","MEAN_MOTION_DDOT":"0.0000000000000","MEAN_MOTION_DOT":"-0.00002987","MEAN_ANOMALY":"302.0555","OBJECT_NAME":"STARLINK-1645","APOAPSIS":"548.454","FILE":"3299685","MEAN_MOTION":"15.06401619","COUNTRY_CODE":"US","NORAD_CAT_ID":"47622","PERIOD":"95.592","OBJECT_ID":"2021-012C","SITE":"AFETR","CENTER_NAME":"EARTH","LAUNCH_DATE":"2021-02-16","MEAN_ELEMENT_THEORY":"SGP4","TLE_LINE1":"1 47622U 21012C   22044.53818186 -.00002987  00000-0 -18167-3 0  9993","RCS_SIZE":"LARGE","CLASSIFICATION_TYPE":"U","TIME_SYSTEM":"UTC","EPOCH":"2022-02-13T12:54:58.912704","BSTAR":"-0.00018167000000","GP_ID":"195894017","ECCENTRICITY":"0.00017980","DECAY_DATE":null,"INCLINATION":"53.0537","SEMIMAJOR_AXIS":"6925.344","RA_OF_ASC_NODE":"258.7163","ELEMENT_SET_NO":"999"},{"REV_AT_EPOCH":"5656","PERIAPSIS":"546.257","EPHEMERIS_TYPE":"0","ARG_OF_PERICENTER":"60.5241","TLE_LINE2":"2 47623  53.0553 193.0735 0001416  60.5241 299.5890 15.06392019 56563","REF_FRAME":"TEME","OBJECT_TYPE":"PAYLOAD","MEAN_MOTION_DOT":"-0.00001866","MEAN_MOTION_DDOT":"0.0000000000000","MEAN_ANOMALY":"299.5890","OBJECT_NAME":"STARLINK-1655","APOAPSIS":"548.219","MEAN_MOTION":"15.06392019","COUNTRY_CODE":"US","NORAD_CAT_ID":"47623","FILE":"3299752","OBJECT_ID":"2021-012D","SITE":"AFETR","PERIOD":"95.593","TLE_LINE1":"1 47623U 21012D   22044.68239497 -.00001866  00000-0 -10646-3 0  9991","MEAN_ELEMENT_THEORY":"SGP4","CENTER_NAME":"EARTH","LAUNCH_DATE":"2021-02-16","RCS_SIZE":"LARGE","CLASSIFICATION_TYPE":"U","TIME_SYSTEM":"UTC","ECCENTRICITY":"0.00014160","GP_ID":"195898761","EPOCH":"2022-02-13T16:22:38.925408","BSTAR":"-0.00010646000000","DECAY_DATE":null,"RA_OF_ASC_NODE":"193.0735","SEMIMAJOR_AXIS":"6925.373","ELEMENT_SET_NO":"999","INCLINATION":"53.0553"}];
